# Made by eph2tle, compiled Oct  9 2023 15:42:32
# Run at Tue Oct 24 13:01:16 2023
#
#    The following TLEs (Two-Line Elements) were generated by fitting
# a numerically-integrated ephemeris,  based on the orbit given below,
# to the SDP4/SGP4 models.  Each TLE is good for the interval between
# its epoch and the epoch of the subsequent TLE (usually one day).
# The maximum deviation between the numerically integrated ephemerides
# and the TLE-based ephemeris, in kilometers,  is given for each TLE
# as the "worst residual".
#
#    This fitting is done using the 'eph2tle' code packaged with Find_Orb.
# The code has details on how the TLEs were computed :
#
#    https://github.com/Bill-Gray/find_orb/eph2tle.cpp
#
#    Be warned:  the error given is that between the numerically
# integrated ephems and the TLE model.  There will usually be at
# least some additional difference between the ephems and the actual
# motion of the satellite,  especially if the ephemerides are based
# on a short arc.  If the following orbital elements say something
# like "[based on] 10 observations 2015 Jan. 1-13",  and the TLEs
# are for 2015 May,  the extrapolation may be tenuous at best.  If
# your application requires a specific level of accuracy,  you may
# want to contact me;  I can give you some idea as to the fit of the
# underlying data (and possibly TLEs based on newer data).
#
#   You can usually find the underlying observational data,  and the
# fitted orbit,  residuals,  ephemerides,  and sometimes some comments
# about the object,  among the pages listed at
#
#    https://www.projectpluto.com/pluto/mpecs/pseudo.htm
#
#    WARNING:  for this object,  "normal" TLEs cannot be fitted.  (This
# usually means an object with an hyperbolic or nearly-parabolic orbit.)
# For this and similar cases,   an alternative model is used,  in which
# most of the traditional TLE data is replaced by six signed 8-digit hex
# numbers.  These six numbers are a state vector,  numerically integrated
# using a simplified force model.  This is necessary for objects at L2 or
# L1,  and sometimes for objects in high orbits where the SDP4/SGP4 model
# fails.  Some documentation is in 'get_el.cpp' in the source code at
# https://www.github.com/Bill-Gray/sat_code ; look for 'hex' in that file,
# with the actual integration done in 'sdp4.cpp'.  But be aware:  it's my
# own extension,  doesn't work with other code,  and is therefore used
# only when necessary.
#
#    Also,  if you use a TLE outside the "correct" time range (between
# its MJD and that of the next TLE),  all bets are off.  I've carefully
# computed and minimized the worst error over the "correct" time frame,
# but the ephemeris may (or may not) diverge wildly outside of it.
#
# Ephem range: 60167.000000 60366.000000 1.000000
# Created Tue Oct 24 13:01:14 2023
# Ephemeris start: 11 Aug 2023  0:00:00
# Ephemeris end:   26 Feb 2024  0:00:00
# Times are all TDT
# Positions/velocities are in equatorial J2000
# Orbital elements:  Luna-25 Fregat stage = 2023-118B = NORAD 57601
#    Perigee 2023 Oct 20.3620273 +/- 6.96e-6 TT =  8:41:19.16 (JD 2460237.8620273)
# Epoch 2023 Oct 21.0 TT; AMR 0.0086665 +/- 0.000212 m^2/kg        Find_Orb
# M  20.6007956071 +/- 0.00023        (J2000 equator)
# n  32.2910316115 +/- 2.54e-5        Peri.  200.6170611 +/- 0.000057
# a210805.64014 +/- 0.11              Node   127.0442732 +/- 0.000038
# e   0.894965501 +/- 5.27e-7         Incl.   44.5771912 +/- 0.00007
# P  11.15d                  H 25.45  G  0.15   U  5.6
# q 22141.864777 +/- 0.102    Q 399469.41551 +/- 0.307
# 38 of 45 observations 2023 Oct. 5-21; mean residual 0".294
#
# 1 NoradU COSPAR   Epoch.epoch     dn/dt/2  d2n/dt2/6 BSTAR    T El# C
# 2 NoradU Inclina RAAscNode Eccent  ArgPeri MeanAno  MeanMotion Rev# C

# Worst residual: 136.48 km
# MJD 60167.000000 (2023 Aug 11  0:00)
Luna-25 Fregat stage = 2023-118B = NORAD 57601
1 57601U 23118B   23222.99919926 -0004GUG6 -0003MTUJ -0005W884H 21239
2 57601                          +0016QRI0 -0001ICJI +000C9TQE     09

# Worst residual: 0.84 km
# MJD 60168.000000 (2023 Aug 12  0:00)
Luna-25 Fregat stage = 2023-118B = NORAD 57601
1 57601U 23118B   23223.99919926 -0026BCX2 +001Y1K30 +001N66I9H 21237
2 57601                          -00075DK0 +0004C0W9 +0002VZJV     09

# Worst residual: 0.91 km
# MJD 60169.000000 (2023 Aug 13  0:00)
Luna-25 Fregat stage = 2023-118B = NORAD 57601
1 57601U 23118B   23224.99919926 -003LA7DY +002QIB2O +0024OQO2H 21233
2 57601                          -0004WJ0E +0002IN9K +0001EC6X     04

# Worst residual: 2.43 km
# MJD 60170.000000 (2023 Aug 14  0:00)
Luna-25 Fregat stage = 2023-118B = NORAD 57601
1 57601U 23118B   23225.99919926 -004LDXY6 +0037W250 +002DC0JGH 21231
2 57601                          -0003IZC8 +0001KX3D +0000NXIK     07

# Worst residual: 5.76 km
# MJD 60171.000000 (2023 Aug 15  0:00)
Luna-25 Fregat stage = 2023-118B = NORAD 57601
1 57601U 23118B   23226.99919926 -005AZ1F4 +003IR4VQ +002GVAS9H 21231
2 57601                          -0002EU8S +0000Z5R2 +00006HZX     05

# Worst residual: 63.29 km
# MJD 60172.000000 (2023 Aug 16  0:00)
Luna-25 Fregat stage = 2023-118B = NORAD 57601
1 57601U 23118B   23227.99919926 -005QKKRL +003PK8JV +002GOCXKH 21232
2 57601                          -00012ACO +0000N2KI -000095S6     08

# Worst residual: 35.18 km
# MJD 60173.000000 (2023 Aug 17  0:00)
Luna-25 Fregat stage = 2023-118B = NORAD 57601
1 57601U 23118B   23228.99919926 -005RDAT8 +003QRTB0 +0029WGH7H 21239
2 57601                          +0000KHBI -0000IM8L -0001A2B9     03

# Worst residual: 7.16 km
# MJD 60174.000000 (2023 Aug 18  0:00)
Luna-25 Fregat stage = 2023-118B = NORAD 57601
1 57601U 23118B   23229.99919926 -005IYPW7 +003ICYGL +001WNGNVH 21232
2 57601                          +0001ECWW -0001DGYR -0001QXRT     06

# Worst residual: 2.42 km
# MJD 60175.000000 (2023 Aug 19  0:00)
Luna-25 Fregat stage = 2023-118B = NORAD 57601
1 57601U 23118B   23230.99919926 -0052JU6J +00338NQ3 +001FWZ5ZH 21234
2 57601                          +0002G6VR -00024WNN -00024FML     03

# Worst residual: 0.80 km
# MJD 60176.000000 (2023 Aug 20  0:00)
Luna-25 Fregat stage = 2023-118B = NORAD 57601
1 57601U 23118B   23231.99919926 -004BEV48 +002GZ15T +000VXW8JH 21231
2 57601                          +0003XQQS -00032CYG -0002I5E2     00

# Worst residual: 0.14 km
# MJD 60177.000000 (2023 Aug 21  0:00)
Luna-25 Fregat stage = 2023-118B = NORAD 57601
1 57601U 23118B   23232.99919926 -00339VIL +001KRMJD +0008LV9PH 21233
2 57601                          +0006MTM6 -0004JT89 -0002VZIT     08

# Worst residual: 56.30 km
# MJD 60178.000000 (2023 Aug 22  0:00)
Luna-25 Fregat stage = 2023-118B = NORAD 57601
1 57601U 23118B   23233.99919926 -000F6ILD +00013K6D -000CA47MH 21239
2 57601                          +000PZUMK -000AHKRB +0003M8X0     03

# Worst residual: 0.30 km
# MJD 60179.000000 (2023 Aug 23  0:00)
Luna-25 Fregat stage = 2023-118B = NORAD 57601
1 57601U 23118B   23234.99919926 -001OVXBJ +001SN5HL +0020IPYEH 21231
2 57601                          -0006RYKJ +00051T7A +0003QASG     04

# Worst residual: 0.35 km
# MJD 60180.000000 (2023 Aug 24  0:00)
Luna-25 Fregat stage = 2023-118B = NORAD 57601
1 57601U 23118B   23235.99919926 -0031NP25 +002QJSX7 +002MDLREH 21235
2 57601                          -0004QQHP +00032RO8 +0001O6G9     05

# Worst residual: 0.34 km
# MJD 60181.000000 (2023 Aug 25  0:00)
Luna-25 Fregat stage = 2023-118B = NORAD 57601
1 57601U 23118B   23236.99919926 -0040ZSUD +003C8TXH +002W994SH 21233
2 57601                          -0003IABN +00020QXB +0000P7B8     02

# Worst residual: 0.25 km
# MJD 60182.000000 (2023 Aug 26  0:00)
Luna-25 Fregat stage = 2023-118B = NORAD 57601
1 57601U 23118B   23237.99919926 -004R386H +003QBDQP +002ZETD0H 21231
2 57601                          -0002KAUH +00019NYT +00002CT3     09

# Worst residual: 0.20 km
# MJD 60183.000000 (2023 Aug 27  0:00)
Luna-25 Fregat stage = 2023-118B = NORAD 57601
1 57601U 23118B   23238.99919926 -0059OGYD +003YJZSK +002XTNO2H 21237
2 57601                          -0001R5IM +0000NK1Y -0000EXNF     00

# Worst residual: 0.25 km
# MJD 60184.000000 (2023 Aug 28  0:00)
Luna-25 Fregat stage = 2023-118B = NORAD 57601
1 57601U 23118B   23239.99919926 -005LKMNG +0041T75U +002SH73PH 21231
2 57601                          -000105HE +00003TOG -0000T933     07

# Worst residual: 0.36 km
# MJD 60185.000000 (2023 Aug 29  0:00)
Luna-25 Fregat stage = 2023-118B = NORAD 57601
1 57601U 23118B   23240.99919926 -005R26KT +0040GG77 +002JWWKQH 21232
2 57601                          -00009HZS -0000F2P2 -00015WUI     03

# Worst residual: 0.40 km
# MJD 60186.000000 (2023 Aug 30  0:00)
Luna-25 Fregat stage = 2023-118B = NORAD 57601
1 57601U 23118B   23241.99919926 -005Q0ZKG +003UJK54 +0028FCW3H 21230
2 57601                          +0000IHKW -0000YDGV -0001HQ9F     03

# Worst residual: 0.50 km
# MJD 60187.000000 (2023 Aug 31  0:00)
Luna-25 Fregat stage = 2023-118B = NORAD 57601
1 57601U 23118B   23242.99919926 -005HWQF0 +003JTH5B +001U54UWH 21234
2 57601                          +0001DZH7 -0001JFA0 -0001TB4P     07

# Worst residual: 0.61 km
# MJD 60188.000000 (2023 Sep  1  0:00)
Luna-25 Fregat stage = 2023-118B = NORAD 57601
1 57601U 23118B   23243.99919926 -0051GTKG +0033N3FA +001D1YUGH 21239
2 57601                          +0002GPAS -000289DK -000256J6     03

# Worst residual: 0.60 km
# MJD 60189.000000 (2023 Sep  2  0:00)
Luna-25 Fregat stage = 2023-118B = NORAD 57601
1 57601U 23118B   23244.99919926 -004A48Y0 +002GO3DZ +000T1AHEH 21235
2 57601                          +0003Z2M1 -000354BO -0002HRZX     03

# Worst residual: 0.81 km
# MJD 60190.000000 (2023 Sep  3  0:00)
Luna-25 Fregat stage = 2023-118B = NORAD 57601
1 57601U 23118B   23245.99919926 -0031FB40 +001JPXMO +0005YV60H 21234
2 57601                          +0006QRZT -0004NM77 -0002TUFX     09

